[{"OBJECT_NAME":"STARLINK-4070","OBJECT_ID":"2022-053J","EPOCH":"2026-03-09T13:08:41.864064","MEAN_MOTION":15.08836537,"ECCENTRICITY":0.00013442,"INCLINATION":53.2149,"RA_OF_ASC_NODE":154.7596,"ARG_OF_PERICENTER":82.1516,"MEAN_ANOMALY":277.9629,"EPHEMERIS_TYPE":0,"CLASSIFICATION_TYPE":"U","NORAD_CAT_ID":52664,"ELEMENT_SET_NO":999,"REV_AT_EPOCH":21102,"BSTAR":8.2823364e-5,"MEAN_MOTION_DOT":1.03e-5,"MEAN_MOTION_DDOT":0},{"OBJECT_NAME":"OBJECT H","OBJECT_ID":"2025-292H","EPOCH":"2026-03-09T22:24:53.558208","MEAN_MOTION":15.06373042,"ECCENTRICITY":0.00142604,"INCLINATION":97.6442,"RA_OF_ASC_NODE":145.7846,"ARG_OF_PERICENTER":348.9217,"MEAN_ANOMALY":11.1694,"EPHEMERIS_TYPE":0,"CLASSIFICATION_TYPE":"U","NORAD_CAT_ID":67000,"ELEMENT_SET_NO":999,"REV_AT_EPOCH":1338,"BSTAR":0.0005462937,"MEAN_MOTION_DOT":8.001e-5,"MEAN_MOTION_DDOT":0}]
